ONEWEB-0053             
1 45157U 20008AC  26170.18566683  .00002554  00000+0  72676-2 0  9996
2 45157  87.8838  35.8833 0002014  76.6111 283.5241 13.10467282308173
ONEWEB-0054             
1 45158U 20008AD  26170.06806196 -.00001519  00000+0 -43892-2 0  9990
2 45158  87.8834  35.8927 0001656  81.9278 278.2037 13.10354333308275
ONEWEB-0056             
1 45159U 20008AE  26170.03949106  .00000072  00000+0  17091-3 0  9991
2 45159  87.8814  35.8938 0001929  87.8060 272.3289 13.10456221308423
ONEWEB-0057             
1 45160U 20008AF  26170.05651464  .00001087  00000+0  30756-2 0  9991
2 45160  87.8835  35.9009 0002038  69.2361 290.8984 13.10387075308593
ONEWEB-0058             
1 45161U 20008AG  26170.19595640 -.00000601  00000+0 -17575-2 0  9997
2 45161  87.8826  35.8791 0001581  85.4552 274.6756 13.10374459308684
ONEWEB-0059             
1 45162U 20008AH  26170.19250189  .00004626  00000+0  13198-1 0  9999
2 45162  87.8827  35.8785 0002028  76.5180 283.6173 13.10432364308586
ONEWEB-0062             
1 45163U 20008AJ  26170.06291167 -.00000751  00000+0 -21868-2 0  9998
2 45163  87.8839  35.8921 0001505  94.1794 265.9505 13.10367755308435
ONEWEB-0065             
1 45164U 20008AK  26170.17275633 -.00000797  00000+0 -23259-2 0  9997
2 45164  87.8829  35.8781 0002042  78.9142 281.2215 13.10221335308143
ONEWEB-0066             
1 45424U 20020A   26170.05411018  .00000060  00000+0  13382-3 0  9994
2 45424  87.8883  20.6996 0001667  81.8775 278.2542 13.11413626302925
ONEWEB-0067             
1 45425U 20020B   26170.09198467  .00000017  00000+0  12866-4 0  9998
2 45425  87.8904  20.6143 0001947  82.2267 277.9082 13.11425900302985
ONEWEB-0080             
1 45426U 20020C   26170.09154883 -.00000064  00000+0 -21544-3 0  9999
2 45426  87.8893  20.6888 0001596  94.9093 265.2217 13.11419695302957
ONEWEB-0090             
1 45427U 20020D   26170.27297553  .00000445  00000+0  12210-2 0  9992
2 45427  87.8893  20.6570 0001815  88.3464 271.7872 13.11414812302943
ONEWEB-0061             
1 45428U 20020E   26170.07600269 -.00000484  00000+0 -14013-2 0  9991
2 45428  87.8893  20.6806 0001769  85.6705 274.4625 13.11416468302879
ONEWEB-0081             
1 45429U 20020F   26170.05749906 -.00000085  00000+0 -27490-3 0  9993
2 45429  87.8887  20.6947 0001789  79.4050 280.7279 13.11414081302981
ONEWEB-0069             
1 45430U 20020G   26170.05932908 -.00000215  00000+0 -64338-3 0  9998
2 45430  87.8890  20.6972 0001803  83.2891 276.8443 13.11413763302916
ONEWEB-0031             
1 45431U 20020H   26170.09480102  .00000065  00000+0  14796-3 0  9991
2 45431  87.8884  20.6952 0001720  91.1165 269.0160 13.11420054302908
ONEWEB-0027             
1 45432U 20020J   26170.23551541  .00000009  00000+0 -95416-5 0  9993
2 45432  87.9142   5.4575 0002017 103.3261 256.8096 13.17651603306629
ONEWEB-0064             
1 45433U 20020K   26170.09311138  .00000060  00000+0  13226-3 0  9997
2 45433  87.8885  20.6875 0001798  91.6919 268.4415 13.11418622302939
ONEWEB-0018             
1 45434U 20020L   26170.27778609  .00000325  00000+0  88153-3 0  9993
2 45434  87.8886  20.6500 0001431  80.3654 279.7636 13.11417166302900
ONEWEB-0083             
1 45435U 20020M   26170.03900427  .00000572  00000+0  15767-2 0  9997
2 45435  87.8895  20.6912 0001762  89.2055 270.9275 13.11416746302914
ONEWEB-0095             
1 45436U 20020N   26170.10681506  .00000547  00000+0  15065-2 0  9993
2 45436  87.8892  20.6864 0002506  91.3091 268.8324 13.11422435302923
ONEWEB-0092             
1 45437U 20020P   26170.28976686 -.00000180  00000+0 -54501-3 0  9993
2 45437  87.8888  20.6413 0002121  83.7935 276.3434 13.11421277303069
ONEWEB-0085             
1 45438U 20020Q   26169.96243122  .00000458  00000+0  12561-2 0  9994
2 45438  87.8886  20.7132 0001802  86.0011 274.1323 13.11415307302905
ONEWEB-0096             
1 45439U 20020R   26170.04054186  .00000628  00000+0  17349-2 0  9994
2 45439  87.8893  20.6937 0001876  87.6382 272.4960 13.11422764302908
ONEWEB-0037             
1 45440U 20020S   26170.07312916 -.00000504  00000+0 -14476-2 0  9990
2 45440  87.8904  20.6605 0001911  86.2158 273.9189 13.11912996302945
ONEWEB-0042             
1 45441U 20020T   26170.10654735  .00000516  00000+0  14205-2 0  9994
2 45441  87.8891  20.6768 0001826  82.0926 278.0410 13.11417015302915
ONEWEB-0098             
1 45442U 20020U   26170.10244178  .00000370  00000+0  10090-2 0  9997
2 45442  87.8890  20.6871 0001767  87.7410 272.3920 13.11418315302898
ONEWEB-0055             
1 45443U 20020V   26170.08111004 -.00000424  00000+0 -12324-2 0  9990
2 45443  87.8892  20.6902 0001772  88.5643 271.5688 13.11418724302862
ONEWEB-0093             
1 45444U 20020W   26170.06102526 -.00000238  00000+0 -70736-3 0  9993
2 45444  87.8892  20.6869 0001862  73.4183 286.7149 13.11414006302923
ONEWEB-0029             
1 45445U 20020X   26170.08814667 -.00000442  00000+0 -12817-2 0  9994
2 45445  87.8885  20.6909 0001717  78.5156 281.6165 13.11417908302900
