OBJECT_NAME,OBJECT_ID,EPOCH,MEAN_MOTION,ECCENTRICITY,INCLINATION,RA_OF_ASC_NODE,ARG_OF_PERICENTER,MEAN_ANOMALY,EPHEMERIS_TYPE,CLASSIFICATION_TYPE,NORAD_CAT_ID,ELEMENT_SET_NO,REV_AT_EPOCH,BSTAR,MEAN_MOTION_DOT,MEAN_MOTION_DDOT
ONEWEB-0053,2020-008AC,2026-06-19T04:27:21.614112,13.10467282,.00020145,87.8838,35.8833,76.6111,283.5241,0,U,45157,999,30817,.72676481E-2,.2554E-4,0
ONEWEB-0054,2020-008AD,2026-06-19T01:38:00.553344,13.10354333,.00016565,87.8834,35.8927,81.9278,278.2037,0,U,45158,999,30827,-.43892357E-2,-.1519E-4,0
ONEWEB-0056,2020-008AE,2026-06-19T00:56:52.027584,13.10456221,.00019297,87.8814,35.8938,87.8060,272.3289,0,U,45159,999,30842,.17091044E-3,.72E-6,0
ONEWEB-0057,2020-008AF,2026-06-19T01:21:22.864896,13.10387075,.00020388,87.8835,35.9009,69.2361,290.8984,0,U,45160,999,30859,.30756111E-2,.1087E-4,0
ONEWEB-0058,2020-008AG,2026-06-19T04:42:10.632960,13.10374459,.00015812,87.8826,35.8791,85.4552,274.6756,0,U,45161,999,30868,-.17575235E-2,-.601E-5,0
ONEWEB-0059,2020-008AH,2026-06-19T04:37:12.163296,13.10432364,.00020281,87.8827,35.8785,76.5180,283.6173,0,U,45162,999,30858,.13198227E-1,.4626E-4,0
ONEWEB-0062,2020-008AJ,2026-06-19T01:30:35.568288,13.10367755,.00015056,87.8839,35.8921,94.1794,265.9505,0,U,45163,999,30843,-.21868019E-2,-.751E-5,0
ONEWEB-0065,2020-008AK,2026-06-19T04:08:46.146912,13.10221335,.00020423,87.8829,35.8781,78.9142,281.2215,0,U,45164,999,30814,-.23259476E-2,-.797E-5,0
ONEWEB-0066,2020-020A,2026-06-19T01:17:55.119552,13.11413626,.0001667,87.8883,20.6996,81.8775,278.2542,0,U,45424,999,30292,.13381603E-3,.6E-6,0
ONEWEB-0067,2020-020B,2026-06-19T02:12:27.475488,13.11425900,.00019475,87.8904,20.6143,82.2267,277.9082,0,U,45425,999,30298,.12865739E-4,.17E-6,0
ONEWEB-0080,2020-020C,2026-06-19T02:11:49.818912,13.11419695,.00015964,87.8893,20.6888,94.9093,265.2217,0,U,45426,999,30295,-.21543521E-3,-.64E-6,0
ONEWEB-0090,2020-020D,2026-06-19T06:33:05.085792,13.11414812,.00018157,87.8893,20.6570,88.3464,271.7872,0,U,45427,999,30294,.12210132E-2,.445E-5,0
ONEWEB-0061,2020-020E,2026-06-19T01:49:26.632416,13.11416468,.00017698,87.8893,20.6806,85.6705,274.4625,0,U,45428,999,30287,-.14013347E-2,-.484E-5,0
ONEWEB-0081,2020-020F,2026-06-19T01:22:47.918784,13.11414081,.00017894,87.8887,20.6947,79.4050,280.7279,0,U,45429,999,30298,-.27490278E-3,-.85E-6,0
ONEWEB-0069,2020-020G,2026-06-19T01:25:26.032512,13.11413763,.00018034,87.8890,20.6972,83.2891,276.8443,0,U,45430,999,30291,-.6433818E-3,-.215E-5,0
ONEWEB-0031,2020-020H,2026-06-19T02:16:30.808128,13.11420054,.00017205,87.8884,20.6952,91.1165,269.0160,0,U,45431,999,30290,.1479594E-3,.65E-6,0
ONEWEB-0027,2020-020J,2026-06-19T05:39:08.531424,13.17651603,.00020176,87.9142,5.4575,103.3261,256.8096,0,U,45432,999,30662,-.9541611E-5,.9E-7,0
ONEWEB-0064,2020-020K,2026-06-19T02:14:04.823232,13.11418622,.00017983,87.8885,20.6875,91.6919,268.4415,0,U,45433,999,30293,.13226181E-3,.6E-6,0
ONEWEB-0018,2020-020L,2026-06-19T06:40:00.718176,13.11417166,.00014318,87.8886,20.6500,80.3654,279.7636,0,U,45434,999,30290,.88152939E-3,.325E-5,0
ONEWEB-0083,2020-020M,2026-06-19T00:56:09.968928,13.11416746,.00017621,87.8895,20.6912,89.2055,270.9275,0,U,45435,999,30291,.15767082E-2,.572E-5,0
ONEWEB-0095,2020-020N,2026-06-19T02:33:48.821184,13.11422435,.0002506,87.8892,20.6864,91.3091,268.8324,0,U,45436,999,30292,.15064785E-2,.547E-5,0
ONEWEB-0092,2020-020P,2026-06-19T06:57:15.856704,13.11421277,.00021215,87.8888,20.6413,83.7935,276.3434,0,U,45437,999,30306,-.54500937E-3,-.18E-5,0
ONEWEB-0085,2020-020Q,2026-06-18T23:05:54.057408,13.11415307,.00018021,87.8886,20.7132,86.0011,274.1323,0,U,45438,999,30290,.1256058E-2,.458E-5,0
ONEWEB-0096,2020-020R,2026-06-19T00:58:22.816704,13.11422764,.00018769,87.8893,20.6937,87.6382,272.4960,0,U,45439,999,30290,.17349275E-2,.628E-5,0
ONEWEB-0037,2020-020S,2026-06-19T01:45:18.359424,13.11912996,.00019115,87.8904,20.6605,86.2158,273.9189,0,U,45440,999,30294,-.14475544E-2,-.504E-5,0
ONEWEB-0042,2020-020T,2026-06-19T02:33:25.691040,13.11417015,.00018269,87.8891,20.6768,82.0926,278.0410,0,U,45441,999,30291,.142048E-2,.516E-5,0
ONEWEB-0098,2020-020U,2026-06-19T02:27:30.969792,13.11418315,.00017675,87.8890,20.6871,87.7410,272.3920,0,U,45442,999,30289,.10090287E-2,.37E-5,0
ONEWEB-0055,2020-020V,2026-06-19T01:56:47.907456,13.11418724,.00017728,87.8892,20.6902,88.5643,271.5688,0,U,45443,999,30286,-.12324302E-2,-.424E-5,0
ONEWEB-0093,2020-020W,2026-06-19T01:27:52.582464,13.11414006,.00018621,87.8892,20.6869,73.4183,286.7149,0,U,45444,999,30292,-.70736365E-3,-.238E-5,0
ONEWEB-0029,2020-020X,2026-06-19T02:06:55.872288,13.11417908,.00017172,87.8885,20.6909,78.5156,281.6165,0,U,45445,999,30290,-.12816555E-2,-.442E-5,0
